{"fetched_at":"2026-07-14T06:34:21.837Z","source":"https://celestrak.org/NORAD/elements/gp.php?GROUP=oneweb&FORMAT=JSON","constellation":"oneweb","records":[{"OBJECT_NAME":"ONEWEB-0291","OBJECT_ID":"2021-075G","EPOCH":"2026-07-13T19:36:18.844128","CLASSIFICATION_TYPE":"U","MEAN_MOTION":13.17647622,"ECCENTRICITY":0.0002124,"INCLINATION":87.9142,"RA_OF_ASC_NODE":0.5645,"ARG_OF_PERICENTER":85.2865,"MEAN_ANOMALY":274.8509,"EPHEMERIS_TYPE":0,"NORAD_CAT_ID":49081,"ELEMENT_SET_NO":999,"REV_AT_EPOCH":23711,"BSTAR":0.00035662,"MEAN_MOTION_DOT":0.00000151,"MEAN_MOTION_DDOT":0},{"OBJECT_NAME":"ONEWEB-0293","OBJECT_ID":"2021-075H","EPOCH":"2026-07-13T20:12:44.382240","CLASSIFICATION_TYPE":"U","MEAN_MOTION":13.17649606,"ECCENTRICITY":0.0001975,"INCLINATION":87.9141,"RA_OF_ASC_NODE":0.5616,"ARG_OF_PERICENTER":90.7215,"MEAN_ANOMALY":269.4143,"EPHEMERIS_TYPE":0,"NORAD_CAT_ID":49082,"ELEMENT_SET_NO":999,"REV_AT_EPOCH":23714,"BSTAR":-0.00024193,"MEAN_MOTION_DOT":-8.1e-7,"MEAN_MOTION_DDOT":0},{"OBJECT_NAME":"ONEWEB-0294","OBJECT_ID":"2021-075J","EPOCH":"2026-07-13T20:39:52.405344","CLASSIFICATION_TYPE":"U","MEAN_MOTION":13.12519183,"ECCENTRICITY":0.0002423,"INCLINATION":87.8968,"RA_OF_ASC_NODE":345.3559,"ARG_OF_PERICENTER":99.3561,"MEAN_ANOMALY":260.7842,"EPHEMERIS_TYPE":0,"NORAD_CAT_ID":49083,"ELEMENT_SET_NO":999,"REV_AT_EPOCH":23807,"BSTAR":-0.039391,"MEAN_MOTION_DOT":-0.00014152,"MEAN_MOTION_DDOT":0},{"OBJECT_NAME":"ONEWEB-0295","OBJECT_ID":"2021-075K","EPOCH":"2026-07-13T20:11:31.990272","CLASSIFICATION_TYPE":"U","MEAN_MOTION":13.17650004,"ECCENTRICITY":0.0001993,"INCLINATION":87.9143,"RA_OF_ASC_NODE":0.5662,"ARG_OF_PERICENTER":82.9595,"MEAN_ANOMALY":277.1763,"EPHEMERIS_TYPE":0,"NORAD_CAT_ID":49084,"ELEMENT_SET_NO":999,"REV_AT_EPOCH":23710,"BSTAR":0.000056159,"MEAN_MOTION_DOT":3.5e-7,"MEAN_MOTION_DDOT":0},{"OBJECT_NAME":"ONEWEB-0296","OBJECT_ID":"2021-075L","EPOCH":"2026-07-13T20:10:35.690304","CLASSIFICATION_TYPE":"U","MEAN_MOTION":13.12443599,"ECCENTRICITY":0.0002055,"INCLINATION":87.8967,"RA_OF_ASC_NODE":345.368,"ARG_OF_PERICENTER":88.309,"MEAN_ANOMALY":271.8274,"EPHEMERIS_TYPE":0,"NORAD_CAT_ID":49085,"ELEMENT_SET_NO":999,"REV_AT_EPOCH":23807,"BSTAR":-0.00090021,"MEAN_MOTION_DOT":-0.00000311,"MEAN_MOTION_DDOT":0},{"OBJECT_NAME":"ONEWEB-0297","OBJECT_ID":"2021-075M","EPOCH":"2026-07-13T20:54:30.964608","CLASSIFICATION_TYPE":"U","MEAN_MOTION":13.124425,"ECCENTRICITY":0.0001878,"INCLINATION":87.8956,"RA_OF_ASC_NODE":345.3691,"ARG_OF_PERICENTER":92.6187,"MEAN_ANOMALY":267.5157,"EPHEMERIS_TYPE":0,"NORAD_CAT_ID":49086,"ELEMENT_SET_NO":999,"REV_AT_EPOCH":23868,"BSTAR":0.00095508,"MEAN_MOTION_DOT":0.00000356,"MEAN_MOTION_DDOT":0},{"OBJECT_NAME":"ONEWEB-0298","OBJECT_ID":"2021-075N","EPOCH":"2026-07-13T20:17:49.989408","CLASSIFICATION_TYPE":"U","MEAN_MOTION":13.17648764,"ECCENTRICITY":0.0001739,"INCLINATION":87.9144,"RA_OF_ASC_NODE":0.5636,"ARG_OF_PERICENTER":89.2697,"MEAN_ANOMALY":270.8634,"EPHEMERIS_TYPE":0,"NORAD_CAT_ID":49087,"ELEMENT_SET_NO":999,"REV_AT_EPOCH":23713,"BSTAR":-0.000085739,"MEAN_MOTION_DOT":-2e-7,"MEAN_MOTION_DDOT":0},{"OBJECT_NAME":"ONEWEB-0299","OBJECT_ID":"2021-075P","EPOCH":"2026-07-13T20:20:02.245344","CLASSIFICATION_TYPE":"U","MEAN_MOTION":13.17647839,"ECCENTRICITY":0.0001844,"INCLINATION":87.9154,"RA_OF_ASC_NODE":0.5458,"ARG_OF_PERICENTER":86.5827,"MEAN_ANOMALY":273.5516,"EPHEMERIS_TYPE":0,"NORAD_CAT_ID":49088,"ELEMENT_SET_NO":999,"REV_AT_EPOCH":23711,"BSTAR":-0.00016857,"MEAN_MOTION_DOT":-5.3e-7,"MEAN_MOTION_DDOT":0},{"OBJECT_NAME":"ONEWEB-0300","OBJECT_ID":"2021-075Q","EPOCH":"2026-07-13T20:43:32.268288","CLASSIFICATION_TYPE":"U","MEAN_MOTION":13.12442952,"ECCENTRICITY":0.000147,"INCLINATION":87.897,"RA_OF_ASC_NODE":345.3531,"ARG_OF_PERICENTER":93.9627,"MEAN_ANOMALY":266.1669,"EPHEMERIS_TYPE":0,"NORAD_CAT_ID":49089,"ELEMENT_SET_NO":999,"REV_AT_EPOCH":23870,"BSTAR":0.0010187,"MEAN_MOTION_DOT":0.00000379,"MEAN_MOTION_DDOT":0},{"OBJECT_NAME":"ONEWEB-0301","OBJECT_ID":"2021-075R","EPOCH":"2026-07-13T20:20:20.995008","CLASSIFICATION_TYPE":"U","MEAN_MOTION":13.12444192,"ECCENTRICITY":0.0001528,"INCLINATION":87.8968,"RA_OF_ASC_NODE":345.3542,"ARG_OF_PERICENTER":99.532,"MEAN_ANOMALY":260.5981,"EPHEMERIS_TYPE":0,"NORAD_CAT_ID":49090,"ELEMENT_SET_NO":999,"REV_AT_EPOCH":23806,"BSTAR":-0.00034882,"MEAN_MOTION_DOT":-0.00000113,"MEAN_MOTION_DDOT":0},{"OBJECT_NAME":"ONEWEB-0302","OBJECT_ID":"2021-075S","EPOCH":"2026-07-13T20:00:50.203296","CLASSIFICATION_TYPE":"U","MEAN_MOTION":13.124416,"ECCENTRICITY":0.0002188,"INCLINATION":87.8965,"RA_OF_ASC_NODE":345.3691,"ARG_OF_PERICENTER":94.6101,"MEAN_ANOMALY":265.5277,"EPHEMERIS_TYPE":0,"NORAD_CAT_ID":49091,"ELEMENT_SET_NO":999,"REV_AT_EPOCH":23804,"BSTAR":-0.0011289,"MEAN_MOTION_DOT":-0.00000393,"MEAN_MOTION_DDOT":0},{"OBJECT_NAME":"ONEWEB-0304","OBJECT_ID":"2021-075T","EPOCH":"2026-07-13T12:26:11.459616","CLASSIFICATION_TYPE":"U","MEAN_MOTION":13.17647773,"ECCENTRICITY":0.000195,"INCLINATION":87.9142,"RA_OF_ASC_NODE":0.6318,"ARG_OF_PERICENTER":88.3921,"MEAN_ANOMALY":271.7434,"EPHEMERIS_TYPE":0,"NORAD_CAT_ID":49092,"ELEMENT_SET_NO":999,"REV_AT_EPOCH":23704,"BSTAR":0.00032261,"MEAN_MOTION_DOT":0.00000138,"MEAN_MOTION_DDOT":0},{"OBJECT_NAME":"ONEWEB-0305","OBJECT_ID":"2021-075U","EPOCH":"2026-07-13T12:16:28.384032","CLASSIFICATION_TYPE":"U","MEAN_MOTION":13.17648149,"ECCENTRICITY":0.00019507,"INCLINATION":87.9149,"RA_OF_ASC_NODE":0.619,"ARG_OF_PERICENTER":80.5148,"MEAN_ANOMALY":279.6204,"EPHEMERIS_TYPE":0,"NORAD_CAT_ID":49093,"ELEMENT_SET_NO":999,"REV_AT_EPOCH":23707,"BSTAR":0.000031493587,"MEAN_MOTION_DOT":2.5e-7,"MEAN_MOTION_DDOT":0},{"OBJECT_NAME":"ONEWEB-0308","OBJECT_ID":"2021-075V","EPOCH":"2026-07-13T19:51:04.184928","CLASSIFICATION_TYPE":"U","MEAN_MOTION":13.12442021,"ECCENTRICITY":0.0001839,"INCLINATION":87.897,"RA_OF_ASC_NODE":345.3627,"ARG_OF_PERICENTER":96.3184,"MEAN_ANOMALY":263.8154,"EPHEMERIS_TYPE":0,"NORAD_CAT_ID":49094,"ELEMENT_SET_NO":999,"REV_AT_EPOCH":23805,"BSTAR":-0.0011104,"MEAN_MOTION_DOT":-0.00000387,"MEAN_MOTION_DDOT":0},{"OBJECT_NAME":"ONEWEB-0309","OBJECT_ID":"2021-075W","EPOCH":"2026-07-13T19:38:43.228032","CLASSIFICATION_TYPE":"U","MEAN_MOTION":13.17650469,"ECCENTRICITY":0.0002353,"INCLINATION":87.9143,"RA_OF_ASC_NODE":0.5648,"ARG_OF_PERICENTER":93.7828,"MEAN_ANOMALY":266.3573,"EPHEMERIS_TYPE":0,"NORAD_CAT_ID":49095,"ELEMENT_SET_NO":999,"REV_AT_EPOCH":23708,"BSTAR":0.00012441,"MEAN_MOTION_DOT":6.1e-7,"MEAN_MOTION_DDOT":0},{"OBJECT_NAME":"ONEWEB-0310","OBJECT_ID":"2021-075X","EPOCH":"2026-07-13T20:13:01.693344","CLASSIFICATION_TYPE":"U","MEAN_MOTION":13.12444082,"ECCENTRICITY":0.000186,"INCLINATION":87.8961,"RA_OF_ASC_NODE":345.3788,"ARG_OF_PERICENTER":96.2243,"MEAN_ANOMALY":263.9097,"EPHEMERIS_TYPE":0,"NORAD_CAT_ID":49096,"ELEMENT_SET_NO":999,"REV_AT_EPOCH":23868,"BSTAR":-0.00070582,"MEAN_MOTION_DOT":-0.00000241,"MEAN_MOTION_DDOT":0}]}
