ONEWEB-0291             
1 49081U 21075G   26194.81688477  .00000151  00000+0  35662-3 0  9999
2 49081  87.9142   0.5645 0002124  85.2865 274.8509 13.17647622237116
ONEWEB-0293             
1 49082U 21075H   26194.84218035 -.00000081  00000+0 -24193-3 0  9993
2 49082  87.9141   0.5616 0001975  90.7215 269.4143 13.17649606237148
ONEWEB-0294             
1 49083U 21075J   26194.86102321 -.00014152  00000+0 -39391-1 0  9994
2 49083  87.8968 345.3559 0002423  99.3561 260.7842 13.12519183238073
ONEWEB-0295             
1 49084U 21075K   26194.84134248  .00000035  00000+0  56159-4 0  9993
2 49084  87.9143   0.5662 0001993  82.9595 277.1763 13.17650004237101
ONEWEB-0296             
1 49085U 21075L   26194.84069086 -.00000311  00000+0 -90021-3 0  9995
2 49085  87.8967 345.3680 0002055  88.3090 271.8274 13.12443599238074
ONEWEB-0297             
1 49086U 21075M   26194.87119172  .00000356  00000+0  95508-3 0  9993
2 49086  87.8956 345.3691 0001878  92.6187 267.5157 13.12442500238682
ONEWEB-0298             
1 49087U 21075N   26194.84571747 -.00000020  00000+0 -85739-4 0  9997
2 49087  87.9144   0.5636 0001739  89.2697 270.8634 13.17648764237137
ONEWEB-0299             
1 49088U 21075P   26194.84724821 -.00000053  00000+0 -16857-3 0  9991
2 49088  87.9154   0.5458 0001844  86.5827 273.5516 13.17647839237112
ONEWEB-0300             
1 49089U 21075Q   26194.86356792  .00000379  00000+0  10187-2 0  9990
2 49089  87.8970 345.3531 0001470  93.9627 266.1669 13.12442952238702
ONEWEB-0301             
1 49090U 21075R   26194.84746522 -.00000113  00000+0 -34882-3 0  9991
2 49090  87.8968 345.3542 0001528  99.5320 260.5981 13.12444192238061
ONEWEB-0302             
1 49091U 21075S   26194.83391439 -.00000393  00000+0 -11289-2 0  9999
2 49091  87.8965 345.3691 0002188  94.6101 265.5277 13.12441600238042
ONEWEB-0304             
1 49092U 21075T   26194.51818819  .00000138  00000+0  32261-3 0  9990
2 49092  87.9142   0.6318 0001950  88.3921 271.7434 13.17647773237041
ONEWEB-0305             
1 49093U 21075U   26194.51143963  .00000025  00000+0  31494-4 0  9995
2 49093  87.9149   0.6190 0001950  80.5148 279.6204 13.17648149237075
ONEWEB-0308             
1 49094U 21075V   26194.82713177 -.00000387  00000+0 -11104-2 0  9997
2 49094  87.8970 345.3627 0001839  96.3184 263.8154 13.12442021238056
ONEWEB-0309             
1 49095U 21075W   26194.81855588  .00000061  00000+0  12441-3 0  9993
2 49095  87.9143   0.5648 0002353  93.7828 266.3573 13.17650469237088
ONEWEB-0310             
1 49096U 21075X   26194.84238071 -.00000241  00000+0 -70582-3 0  9991
2 49096  87.8961 345.3788 0001860  96.2243 263.9097 13.12444082238680
